{
  "type": "FeatureCollection",
  "features": [
    {
      "type": "Feature",
      "properties": {
        "name": "A260",
        "tags": "Antarctic;Shelf",
        "object": "region",
        "component": "ocean",
        "author": "Irena Vankova",
        "zmax": -0.0,
        "zmin": -1000.0
      },
      "geometry": {
        "type": "Polygon",
        "coordinates": [
          [
            [-30, -76],
            [-28, -76],
            [-28, -75],
            [-30, -75],
            [-30, -76]
          ]
        ]
      }
    }
  ]
}
