{
    "type": "FeatureCollection",
    "features": [
        {
            "type": "Feature",
            "properties": {
                "name": "Asc Ross 01",
                "tags": "standard_transport_sections",
                "object": "transect",
                "component": "ocean",
                "author": "Irena Vankova",
                "depth": "6000.0",
                "note": ""
            },
            "geometry": {
                "type": "LineString",
                "coordinates": [
                    [
                        -157.5,
                        -77.5
                    ],
                    [
                        -160.2,
                        -72.6
                    ]
                ]
            }
        }
    ]
}
