{
    "type": "FeatureCollection",
    "features": [
        {
            "type": "Feature",
            "properties": {
                "name": "F04",
                "tags": "manually_drawn_sections",
                "object": "transect",
                "component": "ocean",
                "author": "Python multi-pair ginput script",
                "note": "FRIS region generated transect segment: F04"
            },
            "geometry": {
                "type": "LineString",
                "coordinates": [
                    [
                        -60.81910162190918,
                        -80.69321852317049
                    ],
                    [
                        -53.90122843844068,
                        -80.75740872594548
                    ]
                ]
            }
        }
    ]
}