{
  "type": "FeatureCollection",
  "features": [
    {
      "type": "Feature",
      "properties": {
        "name": "A180",
        "tags": "Antarctic;Shelf",
        "object": "region",
        "component": "ocean",
        "author": "Irena Vankova",
        "zmax": -0.0,
        "zmin": -1000.0
      },
      "geometry": {
        "type": "Polygon",
        "coordinates": [
          [
            [79, -64],
            [81, -64],
            [81, -63],
            [79, -63],
            [79, -64]
          ]
        ]
      }
    }
  ]
}
