{
    "type": "FeatureCollection",
    "features": [
        {
            "type": "Feature",
            "properties": {
                "name": "Asc DWexp Orkney",
                "tags": "standard_transport_sections",
                "object": "transect",
                "component": "ocean",
                "author": "Irena Vankova",
                "depth": "6000.0",
                "note": ""
            },
            "geometry": {
                "type": "LineString",
                "coordinates": [
                    [
                        -41.8,
                        -60.9
                    ],
                    [
                        -38.5,
                        -61.1
                    ],
                    [
                        -35.3,
                        -61.1
                    ],
                    [
                        -33.3,
                        -61.0
                    ],
                    [
                        -31.3,
                        -60.5
                    ],
                    [
                        -28.8,
                        -60.3
                    ],
                    [
                        -28.2,
                        -59.9
                    ]
                ]
            }
        }
    ]
}
