{
    "type": "FeatureCollection",
    "features": [
        {
            "type": "Feature",
            "properties": {
                "name": "F21",
                "tags": "standard_transport_sections",
                "object": "transect",
                "component": "ocean",
                "author": "Python multi-pair ginput script",
                "note": "FRIS region generated transect segment: F21"
            },
            "geometry": {
                "type": "LineString",
                "coordinates": [
                    [
                        -36.69878316177755,
                        -74.94648419495658
                    ],
                    [
                        -27.78298177293689,
                        -76.31241752219361
                    ]
                ]
            }
        }
    ]
}