{
  "type": "FeatureCollection",
  "features": [
    {
      "type": "Feature",
      "properties": {
        "name": "A250",
        "tags": "Antarctic;Shelf",
        "object": "region",
        "component": "ocean",
        "author": "Irena Vankova",
        "zmax": -0.0,
        "zmin": -1000.0
      },
      "geometry": {
        "type": "Polygon",
        "coordinates": [
          [
            [27, -70],
            [29, -70],
            [29, -69],
            [27, -69],
            [27, -70]
          ]
        ]
      }
    }
  ]
}
