{
  "type": "FeatureCollection",
  "features": [
    {
      "type": "Feature",
      "properties": {
        "name": "A090",
        "tags": "Antarctic;Shelf",
        "object": "region",
        "component": "ocean",
        "author": "Irena Vankova",
        "zmax": -0.0,
        "zmin": -1000.0
      },
      "geometry": {
        "type": "Polygon",
        "coordinates": [
          [
            [170, -77],
            [172, -77],
            [172, -76],
            [170, -76],
            [170, -77]
          ]
        ]
      }
    }
  ]
}
