{
    "type": "FeatureCollection",
    "features": [
        {
            "type": "Feature",
            "properties": {
                "name": "F06",
                "tags": "standard_transport_sections",
                "object": "transect",
                "component": "ocean",
                "author": "Python multi-pair ginput script",
                "note": "FRIS region generated transect segment: F06"
            },
            "geometry": {
                "type": "LineString",
                "coordinates": [
                    [
                        -62.368764656444796,
                        -74.8862707930719
                    ],
                    [
                        -47.49199014410694,
                        -77.97010871012102
                    ]
                ]
            }
        }
    ]
}