{
    "type": "FeatureCollection",
    "features": [
        {
            "type": "Feature",
            "properties": {
                "name": "Asc DWexp Amery 02",
                "tags": "standard_transport_sections",
                "object": "transect",
                "component": "ocean",
                "author": "Irena Vankova",
                "depth": "6000.0",
                "note": ""
            },
            "geometry": {
                "type": "LineString",
                "coordinates": [
                    [
                        79.7,
                        -65.9
                    ],
                    [
                        77.5,
                        -66.5
                    ],
                    [
                        74.8,
                        -66.7
                    ],
                    [
                        72.5,
                        -66.5
                    ],
                    [
                        70.0,
                        -66.6
                    ],
                    [
                        68.5,
                        -66.8
                    ],
                    [
                        66.3,
                        -66.8
                    ]
                ]
            }
        }
    ]
}
