{
    "type": "FeatureCollection",
    "features": [
        {
            "type": "Feature",
            "properties": {
                "name": "Asc Amery 04",
                "tags": "standard_transport_sections",
                "object": "transect",
                "component": "ocean",
                "author": "Irena Vankova",
                "depth": "6000.0",
                "note": ""
            },
            "geometry": {
                "type": "LineString",
                "coordinates": [
                    [
                        56.1,
                        -66.3
                    ],
                    [
                        58.5,
                        -64.2
                    ]
                ]
            }
        }
    ]
}
