{
    "type": "FeatureCollection",
    "features": [
        {
            "type": "Feature",
            "properties": {
                "name": "Asc DWexp Weddell 01",
                "tags": "standard_transport_sections",
                "object": "transect",
                "component": "ocean",
                "author": "Irena Vankova",
                "depth": "6000.0",
                "note": ""
            },
            "geometry": {
                "type": "LineString",
                "coordinates": [
                    [
                        -25.4,
                        -74.4
                    ],
                    [
                        -29.9,
                        -74.6
                    ],
                    [
                        -33.2,
                        -74.4
                    ],
                    [
                        -38.0,
                        -74.1
                    ],
                    [
                        -41.8,
                        -73.4
                    ],
                    [
                        -45.8,
                        -72.4
                    ],
                    [
                        -47.9,
                        -72.1
                    ],
                    [
                        -49.9,
                        -72.1
                    ],
                    [
                        -52.4,
                        -71.7
                    ],
                    [
                        -55.6,
                        -70.5
                    ],
                    [
                        -55.9,
                        -69.7
                    ],
                    [
                        -55.5,
                        -68.8
                    ]
                ]
            }
        }
    ]
}
