{
    "type": "FeatureCollection",
    "features": [
        {
            "type": "Feature",
            "properties": {
                "name": "F10",
                "tags": "manually_drawn_sections",
                "object": "transect",
                "component": "ocean",
                "author": "Python multi-pair ginput script",
                "note": "FRIS region generated transect segment: F10"
            },
            "geometry": {
                "type": "LineString",
                "coordinates": [
                    [
                        -76.81996460001335,
                        -79.68285210281294
                    ],
                    [
                        -71.37374270646964,
                        -79.52868888819722
                    ]
                ]
            }
        }
    ]
}