{
    "type": "FeatureCollection",
    "features": [
        {
            "type": "Feature",
            "properties": {
                "name": "F01",
                "tags": "standard_transport_sections",
                "object": "transect",
                "component": "ocean",
                "author": "Python multi-pair ginput script",
                "note": "FRIS region generated transect segment: F01"
            },
            "geometry": {
                "type": "LineString",
                "coordinates": [
                    [
                        -44.33266130981669,
                        -78.31698022067893
                    ],
                    [
                        -35.71121376847464,
                        -78.3470252455653
                    ]
                ]
            }
        }
    ]
}